HODOYOSHI-4             
1 40011U 14033B   26158.82212786  .00001845  00000+0  20517-3 0  9990
2 40011  97.5458 344.0971 0023303 340.7794  19.2542 14.88110178647413
DEIMOS-2                
1 40013U 14033D   26158.80471567  .00002426  00000+0  23448-3 0  9996
2 40013  97.5836  33.6227 0002050  60.7999 299.3426 14.93702458636326
HODOYOSHI-3             
1 40015U 14033F   26158.68667853  .00001321  00000+0  15814-3 0  9990
2 40015  97.6412 322.1104 0033527  28.3326 331.9703 14.85370046646211
SPOT 7                  
1 40053U 14034A   26158.86704627  .00000402  00000+0  91379-4 0  9994
2 40053  98.0627 221.5985 0001192  83.9761 276.1576 14.60950092635773
SKYSAT-B                
1 40072U 14037D   26158.77818358  .00001606  00000+0  18161-3 0  9999
2 40072  98.3832 117.2073 0004610 320.3050  39.7827 14.88004373644562
WORLDVIEW-3 (WV-3)      
1 40115U 14048A   26158.80145322  .00000962  00000+0  11903-3 0  9998
2 40115  97.8566 233.7638 0001697  40.2020 319.9320 14.85007224640513
GAOFEN-2                
1 40118U 14049A   26158.85198506  .00000128  00000+0  23501-4 0  9991
2 40118  98.0107 223.0678 0005870 264.7693  95.2849 14.80886966637858
YAOGAN-21               
1 40143U 14053A   26158.85308957  .00007090  00000+0  27609-3 0  9994
2 40143  97.1479 199.4901 0009669 119.9701 240.2499 15.26235065653539
YAOGAN-22               
1 40275U 14063A   26158.67930603  .00000000  00000+0  12408-3 0  9995
2 40275 100.7713 309.7951 0006131 207.0794 152.9998 13.15530841558566
ASNARO                  
1 40298U 14070A   26158.80730676  .00007990  00000+0  38152-3 0  9990
2 40298  97.3446 235.1767 0004569 197.0169 163.0913 15.19297101642580
YAOGAN-24               
1 40310U 14072A   26158.86380674  .00000468  00000+0  75242-4 0  9997
2 40310  98.1480 296.1237 0012751 296.8761  63.1144 14.76210170622340
CBERS 4                 
1 40336U 14079A   26158.83654831  .00000120  00000+0  56322-4 0  9991
2 40336  98.3530 215.9613 0002046  71.7314 288.4095 14.35506569602613
YAOGAN-26               
1 40362U 14088A   26158.82008044  .00024906  00000+0  49424-3 0  9990
2 40362  97.0649 159.2510 0006657  88.6041 271.5972 15.46974599636250
SMAP                    
1 40376U 15003A   26158.78068464  .00000530  00000+0  11174-3 0  9998
2 40376  98.1276 166.0085 0001262  92.7492 267.3854 14.63358808606244
KOMPSAT-3A              
1 40536U 15014A   26158.90364700  .00026723  00000+0  39333-3 0  9993
2 40536  97.6888 149.5904 0055654 208.3004 151.5222 15.53575595620376
SENTINEL-2A             
1 40697U 15028A   26158.84405579  .00000003  00000+0  17808-4 0  9996
2 40697  98.5679 233.8282 0001081  87.8679 272.2627 14.30820608572391
GAOFEN-8                
1 40701U 15030A   26158.83077972  .00022189  00000+0  46163-3 0  9990
2 40701  97.6913 351.6427 0007958 222.0990 137.9647 15.45617534610005
CARBONITE 1 (CBNT-1)    
1 40718U 15032D   26158.80748774  .00002346  00000+0  29057-3 0  9998
2 40718  97.6510 337.2676 0013835 331.4835  28.5621 14.83561851587951
YAOGAN-27               
1 40878U 15040A   26158.90605891 -.00000447  00000+0 -10652-2 0  9999
2 40878 100.1156 145.6919 0007494 233.8866 126.1554 13.16068564516442
GAOFEN-9 01             
1 40894U 15047A   26158.88553824  .00001121  00000+0  14375-3 0  9994
2 40894  97.6284 195.0027 0027667 167.5077 192.6829 14.82866740578810
YAOGAN-28               
1 41026U 15064A   26158.88865104  .00007258  00000+0  27374-3 0  9998
2 41026  97.3064 297.3415 0009814 217.1320 142.9241 15.27299855589269
YAOGAN-29               
1 41038U 15069A   26158.86719396  .00000147  00000+0  24712-4 0  9999
2 41038  98.0032 187.4854 0002962  68.5704 291.5825 14.83077158569248
KENT RIDGE 1            
1 41167U 15077B   26158.86431258  .00004818  00000+0  16673-3 0  9994
2 41167  14.9809 335.3159 0008262 106.6578 253.4651 15.23076553579679
GAOFEN-4                
1 41194U 15083A   26157.79613806 -.00000321  00000+0  00000+0 0  9992
2 41194   0.3301  83.7532 0004358 108.8481  94.9007  1.00269078 38425
JASON-3                 
1 41240U 16002A   26158.75991823 -.00000026  00000+0  14436-3 0  9995
2 41240  66.0391 145.6550 0008593 273.1555  86.8481 12.87627878486039
SENTINEL-3A             
1 41335U 16011A   26158.81916301  .00000115  00000+0  65544-4 0  9990
2 41335  98.6250 226.3370 0001354 104.3507 255.7824 14.26737473536724
ZIYUAN 3-02 (ZY 3-02)   
1 41556U 16033A   26158.85044618  .00005783  00000+0  26045-3 0  9994
2 41556  97.3832 234.8032 0011677 326.8457  33.2046 15.21392545556566
CARTOSAT-2C             
1 41599U 16040A   26158.83961034  .00004644  00000+0  22336-3 0  9991
2 41599  97.4482 218.9459 0009670 160.9577 199.2021 15.19243791552298
SKYSAT-C1               
1 41601U 16040C   26158.57601098  .00009323  00000+0  26683-3 0  9995
2 41601  96.9567 190.8177 0004173  76.5731 283.5978 15.36137825556394
LAPAN-A3                
1 41603U 16040E   26158.85744410  .00003953  00000+0  12595-3 0  9994
2 41603  97.1489 155.3102 0011821  55.9163 304.3200 15.33046488553381
GAOFEN-3                
1 41727U 16049A   26158.85669560 -.00000040  00000+0  97505-6 0  9994
2 41727  98.4016 166.7837 0001206 100.1963 259.9362 14.42213942517302
