OBJECT_NAME,OBJECT_ID,EPOCH,MEAN_MOTION,ECCENTRICITY,INCLINATION,RA_OF_ASC_NODE,ARG_OF_PERICENTER,MEAN_ANOMALY,EPHEMERIS_TYPE,CLASSIFICATION_TYPE,NORAD_CAT_ID,ELEMENT_SET_NO,REV_AT_EPOCH,BSTAR,MEAN_MOTION_DOT,MEAN_MOTION_DDOT
HODOYOSHI-4,2014-033B,2026-06-07T19:43:51.847104,14.88110178,.0023303,97.5458,344.0971,340.7794,19.2542,0,U,40011,999,64741,.20517E-3,.1845E-4,0
DEIMOS-2,2014-033D,2026-06-07T19:18:47.433888,14.93702458,.000205,97.5836,33.6227,60.7999,299.3426,0,U,40013,999,63632,.23448E-3,.2426E-4,0
HODOYOSHI-3,2014-033F,2026-06-07T16:28:49.024992,14.85370046,.0033527,97.6412,322.1104,28.3326,331.9703,0,U,40015,999,64621,.15814E-3,.1321E-4,0
SPOT 7,2014-034A,2026-06-07T20:48:32.797728,14.60950092,.0001192,98.0627,221.5985,83.9761,276.1576,0,U,40053,999,63577,.91379E-4,.402E-5,0
SKYSAT-B,2014-037D,2026-06-07T18:40:35.061312,14.88004373,.000461,98.3832,117.2073,320.3050,39.7827,0,U,40072,999,64456,.18161E-3,.1606E-4,0
WORLDVIEW-3 (WV-3),2014-048A,2026-06-07T19:14:05.558208,14.85007224,.0001697,97.8566,233.7638,40.2020,319.9320,0,U,40115,999,64051,.11903E-3,.962E-5,0
GAOFEN-2,2014-049A,2026-06-07T20:26:51.509184,14.80886966,.000587,98.0107,223.0678,264.7693,95.2849,0,U,40118,999,63785,.23501E-4,.128E-5,0
YAOGAN-21,2014-053A,2026-06-07T20:28:26.938848,15.26235065,.0009669,97.1479,199.4901,119.9701,240.2499,0,U,40143,999,65353,.27609E-3,.709E-4,0
YAOGAN-22,2014-063A,2026-06-07T16:18:12.040992,13.15530841,.0006131,100.7713,309.7951,207.0794,152.9998,0,U,40275,999,55856,.12408E-3,0,0
ASNARO,2014-070A,2026-06-07T19:22:31.304064,15.19297101,.0004569,97.3446,235.1767,197.0169,163.0913,0,U,40298,999,64258,.38152E-3,.799E-4,0
YAOGAN-24,2014-072A,2026-06-07T20:43:52.902336,14.76210170,.0012751,98.1480,296.1237,296.8761,63.1144,0,U,40310,999,62234,.75242E-4,.468E-5,0
CBERS 4,2014-079A,2026-06-07T20:04:37.773984,14.35506569,.0002046,98.3530,215.9613,71.7314,288.4095,0,U,40336,999,60261,.56322E-4,.12E-5,0
YAOGAN-26,2014-088A,2026-06-07T19:40:54.950016,15.46974599,.0006657,97.0649,159.2510,88.6041,271.5972,0,U,40362,999,63625,.49424E-3,.24906E-3,0
SMAP,2015-003A,2026-06-07T18:44:11.152896,14.63358808,.0001262,98.1276,166.0085,92.7492,267.3854,0,U,40376,999,60624,.11174E-3,.53E-5,0
KOMPSAT-3A,2015-014A,2026-06-07T21:41:15.100800,15.53575595,.0055654,97.6888,149.5904,208.3004,151.5222,0,U,40536,999,62037,.39333E-3,.26723E-3,0
SENTINEL-2A,2015-028A,2026-06-07T20:15:26.420256,14.30820608,.0001081,98.5679,233.8282,87.8679,272.2627,0,U,40697,999,57239,.17808E-4,.3E-7,0
GAOFEN-8,2015-030A,2026-06-07T19:56:19.367808,15.45617534,.0007958,97.6913,351.6427,222.0990,137.9647,0,U,40701,999,61000,.46163E-3,.22189E-3,0
CARBONITE 1 (CBNT-1),2015-032D,2026-06-07T19:22:46.940736,14.83561851,.0013835,97.6510,337.2676,331.4835,28.5621,0,U,40718,999,58795,.29057E-3,.2346E-4,0
YAOGAN-27,2015-040A,2026-06-07T21:44:43.489824,13.16068564,.0007494,100.1156,145.6919,233.8866,126.1554,0,U,40878,999,51644,-.10652E-2,-.447E-5,0
GAOFEN-9 01,2015-047A,2026-06-07T21:15:10.503936,14.82866740,.0027667,97.6284,195.0027,167.5077,192.6829,0,U,40894,999,57881,.14375E-3,.1121E-4,0
YAOGAN-28,2015-064A,2026-06-07T21:19:39.449856,15.27299855,.0009814,97.3064,297.3415,217.1320,142.9241,0,U,41026,999,58926,.27374E-3,.7258E-4,0
YAOGAN-29,2015-069A,2026-06-07T20:48:45.558144,14.83077158,.0002962,98.0032,187.4854,68.5704,291.5825,0,U,41038,999,56924,.24712E-4,.147E-5,0
KENT RIDGE 1,2015-077B,2026-06-07T20:44:36.606912,15.23076553,.0008262,14.9809,335.3159,106.6578,253.4651,0,U,41167,999,57967,.16673E-3,.4818E-4,0
GAOFEN-4,2015-083A,2026-06-06T19:06:26.328384,1.00269078,.00043587,0.3301,83.7532,108.8481,94.9007,0,U,41194,999,3842,0,-.321E-5,0
JASON-3,2016-002A,2026-06-07T18:14:16.935072,12.87627878,.0008593,66.0391,145.6550,273.1555,86.8481,0,U,41240,999,48603,.14436E-3,-.26E-6,0
SENTINEL-3A,2016-011A,2026-06-07T19:39:35.684064,14.26737473,.0001354,98.6250,226.3370,104.3507,255.7824,0,U,41335,999,53672,.65544E-4,.115E-5,0
ZIYUAN 3-02 (ZY 3-02),2016-033A,2026-06-07T20:24:38.549952,15.21392545,.0011677,97.3832,234.8032,326.8457,33.2046,0,U,41556,999,55656,.26045E-3,.5783E-4,0
CARTOSAT-2C,2016-040A,2026-06-07T20:09:02.333376,15.19243791,.000967,97.4482,218.9459,160.9577,199.2021,0,U,41599,999,55229,.22336E-3,.4644E-4,0
SKYSAT-C1,2016-040C,2026-06-07T13:49:27.348672,15.36137825,.0004173,96.9567,190.8177,76.5731,283.5978,0,U,41601,999,55639,.26683E-3,.9323E-4,0
LAPAN-A3,2016-040E,2026-06-07T20:34:43.170240,15.33046488,.0011821,97.1489,155.3102,55.9163,304.3200,0,U,41603,999,55338,.12595E-3,.3953E-4,0
GAOFEN-3,2016-049A,2026-06-07T20:33:38.499840,14.42213942,.0001206,98.4016,166.7837,100.1963,259.9362,0,U,41727,999,51730,.97505E-6,-.4E-6,0
